IRIDIUM 63              
1 25286U 98021B   25364.03863190  .00000654  00000+0  21510-3 0  9999
2 25286  86.3981 359.9535 0002239  83.6601 276.4851 14.36751191451965
IRIDIUM 69              
1 25319U 98026A   25364.07232963  .00000675  00000+0  20305-3 0  9997
2 25319  86.3968  12.6090 0004604  94.0746 266.0980 14.41233739451271
IRIDIUM 71              
1 25320U 98026B   25364.05792072  .00000509  00000+0  15121-3 0  9995
2 25320  86.3970   7.2864 0003512 124.9977 235.1553 14.41329796451802
IRIDIUM 73              
1 25344U 98032C   25364.14536782  .00001115  00000+0  27093-3 0  9997
2 25344  86.4419 323.5914 0002916  78.8414 281.3120 14.52016648458998
IRIDIUM 82              
1 25467U 98051A   25364.04448647  .00062154  00000+0  11018-2 0  9994
2 25467  86.3600  12.3850 0056380 264.9918  94.4903 15.48214455454077
